{
    "links": {
        "self": "http://www.neowsapp.com/rest/v1/neo/3466654?api_key=iIulBulltgU6a56xZRHN4H3l9WmuAYTsLGpBGhQ2"
    },
    "id": "3466654",
    "neo_reference_id": "3466654",
    "name": "(2009 QC35)",
    "designation": "2009 QC35",
    "nasa_jpl_url": "http://ssd.jpl.nasa.gov/sbdb.cgi?sstr=3466654",
    "absolute_magnitude_h": 25.4,
    "estimated_diameter": {
        "kilometers": {
            "estimated_diameter_min": 0.022108281,
            "estimated_diameter_max": 0.0494356193
        },
        "meters": {
            "estimated_diameter_min": 22.1082810359,
            "estimated_diameter_max": 49.435619262
        },
        "miles": {
            "estimated_diameter_min": 0.0137374447,
            "estimated_diameter_max": 0.0307178602
        },
        "feet": {
            "estimated_diameter_min": 72.5337327539,
            "estimated_diameter_max": 162.1903570994
        }
    },
    "is_potentially_hazardous_asteroid": false,
    "close_approach_data": [
        {
            "close_approach_date": "1904-12-05",
            "close_approach_date_full": "1904-Dec-05 04:11",
            "epoch_date_close_approach": -2053540140000,
            "relative_velocity": {
                "kilometers_per_second": "19.6339523485",
                "kilometers_per_hour": "70682.2284545723",
                "miles_per_hour": "43919.1880083424"
            },
            "miss_distance": {
                "astronomical": "0.3201681954",
                "lunar": "124.5454280106",
                "kilometers": "47896480.073583798",
                "miles": "29761492.6589724924"
            },
            "orbiting_body": "Earth"
        },
        {
            "close_approach_date": "2009-09-02",
            "close_approach_date_full": "2009-Sep-02 02:48",
            "epoch_date_close_approach": 1251859680000,
            "relative_velocity": {
                "kilometers_per_second": "10.0356583715",
                "kilometers_per_hour": "36128.3701372265",
                "miles_per_hour": "22448.7642111005"
            },
            "miss_distance": {
                "astronomical": "0.0070924697",
                "lunar": "2.7589707133",
                "kilometers": "1061018.360159539",
                "miles": "659286.2374940782"
            },
            "orbiting_body": "Moon"
        },
        {
            "close_approach_date": "2009-09-02",
            "close_approach_date_full": "2009-Sep-02 11:37",
            "epoch_date_close_approach": 1251891420000,
            "relative_velocity": {
                "kilometers_per_second": "10.1611567011",
                "kilometers_per_hour": "36580.1641239193",
                "miles_per_hour": "22729.4914246653"
            },
            "miss_distance": {
                "astronomical": "0.007504766",
                "lunar": "2.919353974",
                "kilometers": "1122697.00844842",
                "miles": "697611.572371396"
            },
            "orbiting_body": "Earth"
        }
    ],
    "orbital_data": {
        "orbit_id": "10",
        "orbit_determination_date": "2017-04-06 09:00:08",
        "first_observation_date": "2009-08-29",
        "last_observation_date": "2009-09-02",
        "data_arc_in_days": 4,
        "observations_used": 43,
        "orbit_uncertainty": "7",
        "minimum_orbit_intersection": ".00510002",
        "jupiter_tisserand_invariant": "3.441",
        "epoch_osculation": "2459000.5",
        "eccentricity": ".5678083750918702",
        "semi_major_axis": "2.193945316037466",
        "inclination": "1.065802072271671",
        "ascending_node_longitude": "147.540568345039",
        "orbital_period": "1186.962845417961",
        "perihelion_distance": ".9482047910978129",
        "perihelion_argument": "228.935490968347",
        "aphelion_distance": "3.43968584097712",
        "perihelion_time": "2458663.817585346231",
        "mean_anomaly": "102.114122395025",
        "mean_motion": ".3032950874492069",
        "equinox": "J2000",
        "orbit_class": {
            "orbit_class_type": "APO",
            "orbit_class_description": "Near-Earth asteroid orbits which cross the Earth’s orbit similar to that of 1862 Apollo",
            "orbit_class_range": "a (semi-major axis) > 1.0 AU; q (perihelion) < 1.017 AU"
        }
    },
    "is_sentry_object": false
}